STARLINK-30533          
1 58037U 23156K   26174.88741254  .00026791  00000+0  80079-3 0  9990
2 58037  53.1592  34.0786 0000966  78.5818 281.5293 15.34416728151307
STARLINK-30560          
1 58038U 23156L   26174.61546901  .00002116  00000+0  83577-4 0  9996
2 58038  53.1624 303.5180 0000958  62.2047 297.9051 15.30183959152522
STARLINK-30555          
1 58040U 23156N   26174.91678059  .00000572  00000+0  28068-4 0  9990
2 58040  53.1595  33.5698 0000922 102.2400 257.8706 15.34394365151312
STARLINK-30542          
1 58041U 23156P   26174.65190150 -.00000476  00000+0 -39372-5 0  9999
2 58041  53.1615 306.0460 0001059  90.8826 269.2296 15.30196236152536
STARLINK-30563          
1 58042U 23156Q   26174.78089328  .00001009  00000+0  46178-4 0  9990
2 58042  53.1607 302.9740 0001289  78.3464 281.7682 15.30201066152590
STARLINK-30564          
1 58043U 23156R   26174.64140647 -.00168957  00000+0 -58470-2 0  9992
2 58043  53.1579 306.3517 0005146  91.6257 268.5333 15.30045910152537
STARLINK-30547          
1 58044U 23156S   26174.93361415 -.00000598  00000+0 -65741-5 0  9991
2 58044  53.1581  33.6301 0001368  85.6597 274.4561 15.34387160151318
STARLINK-30550          
1 58045U 23156T   26174.83887576 -.00001602  00000+0 -36280-4 0  9994
2 58045  53.1602 227.8726 0001228  95.9957 264.1186 15.34399825153637
STARLINK-30548          
1 58046U 23156U   26174.91046917  .00001818  00000+0  64940-4 0  9991
2 58046  53.1603  33.5365 0000850  89.9354 270.1746 15.34392675151266
STARLINK-30529          
1 58047U 23156V   26174.92557924 -.00001730  00000+0 -46310-4 0  9994
2 58047  53.1574  35.0244 0000930 102.0926 258.0179 15.30198505151243
STARLINK-30554          
1 58048U 23156W   26174.88337089  .00000196  00000+0  18752-4 0  9990
2 58048  53.1614  34.7821 0001405  87.9246 272.1916 15.30194506151243
STARLINK-30568          
1 58051U 23158A   26174.21307718  .00000134  00000+0  14385-4 0  9999
2 58051  43.0020 151.5159 0001427 269.0367  91.0321 15.27573107149697
STARLINK-30575          
1 58052U 23158B   26174.40537629  .00001409  00000+0  60705-4 0  9990
2 58052  43.0023 150.3805 0001267 265.7403  94.3304 15.27579987149736
STARLINK-30577          
1 58053U 23158C   26174.96173468 -.00000238  00000+0  88764-6 0  9996
2 58053  43.0036 146.8009 0001224 272.2490  87.8222 15.27573839149825
STARLINK-30566          
1 58054U 23158D   26174.62709075 -.00101910  00000+0 -37488-2 0  9992
2 58054  43.0039 148.6082 0001914 258.4587 101.6050 15.27545454149779
STARLINK-30544          
1 58055U 23158E   26174.61552692 -.00000002  00000+0  94612-5 0  9997
2 58055  43.0000 148.5200 0001251 268.8894  91.1815 15.27575913149774
STARLINK-30553          
1 58056U 23158F   26174.62966394  .00000437  00000+0  25411-4 0  9998
2 58056  43.0009 148.6257 0000968 271.4485  88.6256 15.27574094149776
STARLINK-30541          
1 58057U 23158G   26174.62324074  .00000016  00000+0  10098-4 0  9990
2 58057  43.0014 148.5782 0000890 274.4982  85.5768 15.27572860149777
STARLINK-30573          
1 58058U 23158H   26174.96044754  .00000235  00000+0  18048-4 0  9998
2 58058  43.0028 146.8059 0001246 271.6792  88.3917 15.27576734149822
STARLINK-30582          
1 58059U 23158J   26174.93860894 -.00000141  00000+0  43990-5 0  9999
2 58059  43.0007 146.6464 0001462 272.8733  87.1951 15.27572766149822
STARLINK-30558          
1 58060U 23158K   26174.65923198 -.00001599  00000+0 -48619-4 0  9998
2 58060  43.0033 148.8359 0002600 271.3581  88.6973 15.27559335149771
STARLINK-30579          
1 58061U 23158L   26174.92896061  .00000372  00000+0  23052-4 0  9997
2 58061  43.0021 121.2631 0001309 263.9111  96.1591 15.27573077150117
STARLINK-30588          
1 58062U 23158M   26174.96430516 -.00001463  00000+0 -43645-4 0  9995
2 58062  43.0029 146.8340 0000812 274.5276  85.5483 15.27578295149829
STARLINK-30585          
1 58063U 23158N   26174.64509029  .00002408  00000+0  97016-4 0  9996
2 58063  43.0038 148.7425 0001845 268.8174  91.2467 15.27571463149775
STARLINK-30587          
1 58064U 23158P   26174.61937294  .00000630  00000+0  32412-4 0  9997
2 58064  43.0026 148.5462 0001122 280.9537  79.1189 15.27585810149775
STARLINK-30576          
1 58065U 23158Q   26174.96558625  .00001294  00000+0  56538-4 0  9995
2 58065  43.0026 146.8531 0001131 274.4877  85.5845 15.27580240149827
STARLINK-30571          
1 58066U 23158R   26174.65536021  .00000365  00000+0  22795-4 0  9994
2 58066  43.0045 148.8158 0001692 273.3660  86.6998 15.27576869149773
STARLINK-30567          
1 58067U 23158S   26174.40154192  .00002203  00000+0  89581-4 0  9992
2 58067  43.0017 150.3333 0001058 200.5975 159.4834 15.27565781149738
STARLINK-30569          
1 58068U 23158T   26174.96766475  .00000655  00000+0  33313-4 0  9998
2 58068  43.0027 150.2681 0001099 275.0441  85.0285 15.27580112149789
STARLINK-30480          
1 58069U 23158U   26174.89345649  .00002462  00000+0  98993-4 0  9990
2 58069  43.0027   5.0479 0001401 270.4340  89.6351 15.27565508151482
STARLINK-30532          
1 58070U 23158V   26174.90277083 -.00000464  00000+0 -73491-5 0  9999
2 58070  43.0021 147.2328 0001673 292.8463  67.2212 15.27578438149813
STARLINK-30506          
1 58072U 23158X   26174.65150798  .00000447  00000+0  25779-4 0  9990
2 58072  43.0022 148.7813 0001229 303.8212  56.2523 15.27573561149773
YUNHAI-1 04             
1 58073U 23159A   26174.99596461  .00000275  00000+0  11688-3 0  9992
2 58073  98.4978 200.6107 0001745 129.5624 230.5715 14.32734124140775
STARLINK-30604          
1 58075U 23160A   26174.78484140  .00000236  00000+0  18129-4 0  9998
2 58075  43.0044 198.5600 0001867 280.9666  79.0976 15.27575369149170
STARLINK-30500          
1 58076U 23160B   26174.53614064  .00000943  00000+0  43801-4 0  9992
2 58076  43.0031 200.1207 0001462 264.5521  95.5164 15.27576518149134
STARLINK-30613          
1 58077U 23160C   26174.79126792 -.00000072  00000+0  69103-5 0  9995
2 58077  43.0032 198.6091 0001728 281.1581  78.9076 15.27573618149184
STARLINK-30597          
1 58078U 23160D   26174.77712716  .00000234  00000+0  18040-4 0  9993
2 58078  43.0030 198.4840 0001504 274.9031  85.1649 15.27575989149173
STARLINK-30598          
1 58079U 23160E   26174.79511854  .00000143  00000+0  14727-4 0  9993
2 58079  43.0027 198.6346 0001872 274.5172  85.5466 15.27578556149177
STARLINK-30603          
1 58080U 23160F   26174.53742668  .00001226  00000+0  54062-4 0  9995
2 58080  43.0036 200.1383 0001687 272.6452  87.4207 15.27577898149131
STARLINK-30602          
1 58081U 23160G   26174.77183647  .00005276  00000+0  20929-3 0  9991
2 58081  42.9980 201.8818 0000725 298.2510  61.8267 15.26244028149137
STARLINK-30610          
1 58082U 23160H   26174.75928413  .00003269  00000+0  12825-3 0  9994
2 58082  42.9995 199.2163 0001234 269.0385  91.0325 15.27587550149163
STARLINK-30551          
1 58083U 23160J   26174.79462734 -.00000603  00000+0 -12383-4 0  9999
2 58083  43.0029 202.0288 0001117 272.9965  87.0759 15.27576417149135
STARLINK-30586          
1 58084U 23160K   26174.53693177  .00000389  00000+0  23667-4 0  9995
2 58084  43.0035 203.5342 0001956 282.1756  77.8877 15.27577752149098
STARLINK-30609          
1 58085U 23160L   26174.80234499  .00000718  00000+0  35616-4 0  9997
2 58085  43.0035 202.0917 0001949 276.4568  83.6062 15.27577977149135
STARLINK-30583          
1 58086U 23160M   26174.80619021  .00000510  00000+0  28064-4 0  9995
2 58086  43.0042 202.1189 0001808 279.6233  80.4414 15.27578477149136
STARLINK-30557          
1 58087U 23160N   26174.35233799  .00000822  00000+0  39398-4 0  9998
2 58087  43.0024 204.7275 0001599 271.0336  89.0333 15.27576680149069
STARLINK-30591          
1 58088U 23160P   26174.77456606  .00000332  00000+0  21577-4 0  9995
2 58088  43.0015 198.4735 0001661 280.3433  79.7232 15.27580400149172
STARLINK-30584          
1 58089U 23160Q   26174.78869623 -.00000421  00000+0 -57649-5 0  9995
2 58089  43.0026 198.5811 0001462 280.8088  79.2599 15.27572750149171
STARLINK-30590          
1 58090U 23160R   26174.55363172  .00000886  00000+0  41721-4 0  9996
2 58090  43.0006 203.6384 0001398 260.7999  99.2694 15.27584587149090
STARLINK-30608          
1 58091U 23160S   26174.54257016  .00000063  00000+0  11819-4 0  9997
2 58091  43.0025 200.1704 0001708 267.9724  92.0932 15.27574595149139
STARLINK-30615          
1 58092U 23160T   26174.77084924  .00000768  00000+0  37419-4 0  9995
2 58092  43.0006 199.2960 0001262 267.4058  92.6650 15.27578493149168
STARLINK-30578          
1 58093U 23160U   26174.78741008 -.00000423  00000+0 -58642-5 0  9992
2 58093  43.0027 198.5639 0001445 282.3738  77.6952 15.27572878149171
STARLINK-30574          
1 58094U 23160V   26174.52200711  .00001075  00000+0  48600-4 0  9990
2 58094  43.0034 200.0146 0001284 288.2685  71.8027 15.27579220149132
STARLINK-30570          
1 58095U 23160W   26174.79383756 -.00000264  00000+0 -67009-7 0  9999
2 58095  43.0038 198.6158 0001672 263.8749  96.1913 15.27575602149171
STARLINK-30581          
1 58096U 23160X   26174.08615293  .00001672  00000+0  70264-4 0  9992
2 58096  42.9994 202.7500 0001818 271.0125  89.0519 15.27579066149069
STARLINK-30594          
1 58097U 23161A   26174.87212002  .00000454  00000+0  24577-4 0  9995
2 58097  53.1610  31.9722 0000966  80.6813 279.4299 15.34389526150686
STARLINK-30614          
1 58098U 23161B   26174.66668981  .00009333  00000+0  28710-3 0  9991
2 58098  53.1603  33.0695 0001157  93.7692 141.1362 15.34391115  5888
STARLINK-30607          
1 58099U 23161C   26174.83650413 -.00000593  00000+0 -78992-5 0  9992
2 58099  53.1605  22.4626 0001403  83.0625 277.0536 15.30193779150806
STARLINK-30600          
1 58100U 23161D   26174.90990998  .00000626  00000+0  29667-4 0  9997
2 58100  53.1609  31.4898 0001237  93.5487 266.5658 15.34390595150695
